[{"OBJECT_NAME":"STARLINK-2094","OBJECT_ID":"2021-005AC","EPOCH":"2026-03-09T22:00:01.999584","MEAN_MOTION":15.1057612,"ECCENTRICITY":0.00015618,"INCLINATION":53.0714,"RA_OF_ASC_NODE":60.5643,"ARG_OF_PERICENTER":87.5048,"MEAN_ANOMALY":287.6905,"EPHEMERIS_TYPE":0,"CLASSIFICATION_TYPE":"U","NORAD_CAT_ID":47375,"ELEMENT_SET_NO":999,"REV_AT_EPOCH":572,"BSTAR":0.052663028,"MEAN_MOTION_DOT":0.00941976,"MEAN_MOTION_DDOT":0},{"OBJECT_NAME":"CZ-6A DEB","OBJECT_ID":"2022-151VT","EPOCH":"2026-03-09T17:17:01.578624","MEAN_MOTION":15.13055612,"ECCENTRICITY":0.00307053,"INCLINATION":98.6048,"RA_OF_ASC_NODE":145.9599,"ARG_OF_PERICENTER":176.0049,"MEAN_ANOMALY":184.143,"EPHEMERIS_TYPE":0,"CLASSIFICATION_TYPE":"U","NORAD_CAT_ID":55202,"ELEMENT_SET_NO":999,"REV_AT_EPOCH":17179,"BSTAR":0.0062201193,"MEAN_MOTION_DOT":0.00112789,"MEAN_MOTION_DDOT":0}]
